[{"OBJECT_NAME":"OTTER","OBJECT_ID":"2025-009Q","EPOCH":"2026-03-09T17:21:07.902432","MEAN_MOTION":15.27809545,"ECCENTRICITY":0.00035728,"INCLINATION":97.4065,"RA_OF_ASC_NODE":151.3812,"ARG_OF_PERICENTER":310.771,"MEAN_ANOMALY":49.3219,"EPHEMERIS_TYPE":0,"CLASSIFICATION_TYPE":"U","NORAD_CAT_ID":62623,"ELEMENT_SET_NO":999,"REV_AT_EPOCH":6372,"BSTAR":0.00045151206,"MEAN_MOTION_DOT":0.00012198,"MEAN_MOTION_DDOT":0},{"OBJECT_NAME":"STARLINK-36097","OBJECT_ID":"2025-298S","EPOCH":"2026-03-09T21:42:20.478816","MEAN_MOTION":15.26086669,"ECCENTRICITY":0.00039178,"INCLINATION":70.003,"RA_OF_ASC_NODE":12.9557,"ARG_OF_PERICENTER":200.4809,"MEAN_ANOMALY":159.6208,"EPHEMERIS_TYPE":0,"CLASSIFICATION_TYPE":"U","NORAD_CAT_ID":67091,"ELEMENT_SET_NO":999,"REV_AT_EPOCH":1327,"BSTAR":0.0027728212,"MEAN_MOTION_DOT":0.00072258,"MEAN_MOTION_DDOT":0}]
